ONEWEB-0504             
1 54122U 22138K   24147.93547403  .00000075  00000+0  15480-3 0  9995
2 54122  87.9141  94.4720 0001914  92.9154 267.2197 13.19723634 77745
ONEWEB-0505             
1 54123U 22138L   24148.53885044 -.00000292  00000+0 -76230-3 0  9992
2 54123  87.9138  94.3470 0002318 101.7529 258.3863 13.19724803 78670
ONEWEB-0506             
1 54124U 22138M   24147.83122034 -.00000047  00000+0 -15065-3 0  9995
2 54124  87.9137  94.4848 0002163  89.9152 270.2228 13.19727479 77700
ONEWEB-0507             
1 54125U 22138N   24147.92757539  .00000440  00000+0  10657-2 0  9996
2 54125  87.9144  94.4857 0002326  92.4195 267.7204 13.19725081 77764
ONEWEB-0508             
1 54126U 22138P   24148.37932216 -.00001119  00000+0 -28266-2 0  9995
2 54126  87.9144  94.3896 0002536  91.7636 268.3787 13.19732440 78673
ONEWEB-0509             
1 54127U 22138Q   24147.89914120 -.00000245  00000+0 -64433-3 0  9992
2 54127  87.9137  94.4732 0002152  88.1612 271.9767 13.19725376 78582
ONEWEB-0510             
1 54128U 22138R   24147.77563163  .00001006  00000+0  24421-2 0  9993
2 54128  87.9222  63.9365 0002239  75.4042 284.7340 13.20765131 80096
ONEWEB-0511             
1 54129U 22138S   24147.89598245  .00000103  00000+0  22481-3 0  9998
2 54129  87.9138  94.4765 0001713  90.1374 269.9955 13.19728395 77748
